[{"OBJECT_NAME":"STARLINK-5946","OBJECT_ID":"2023-042E","EPOCH":"2026-03-09T22:26:29.670432","MEAN_MOTION":15.02542872,"ECCENTRICITY":0.00012305,"INCLINATION":43.005,"RA_OF_ASC_NODE":55.0933,"ARG_OF_PERICENTER":264.5792,"MEAN_ANOMALY":95.491,"EPHEMERIS_TYPE":0,"CLASSIFICATION_TYPE":"U","NORAD_CAT_ID":55990,"ELEMENT_SET_NO":999,"REV_AT_EPOCH":16294,"BSTAR":3.2179568e-5,"MEAN_MOTION_DOT":2.31e-6,"MEAN_MOTION_DDOT":0},{"OBJECT_NAME":"HAMSAT (VO-52)","OBJECT_ID":"2005-017B","EPOCH":"2026-03-09T22:34:09.009120","MEAN_MOTION":15.08773202,"ECCENTRICITY":0.00200128,"INCLINATION":97.9995,"RA_OF_ASC_NODE":87.8294,"ARG_OF_PERICENTER":17.3795,"MEAN_ANOMALY":342.8113,"EPHEMERIS_TYPE":0,"CLASSIFICATION_TYPE":"U","NORAD_CAT_ID":28650,"ELEMENT_SET_NO":999,"REV_AT_EPOCH":13179,"BSTAR":0.00045282519,"MEAN_MOTION_DOT":7.08e-5,"MEAN_MOTION_DDOT":0}]
